{
  "type": "FeatureCollection",
  "features": [
    {
      "type": "Feature",
      "properties": {
        "norad_id": 66404,
        "name": "STARLINK-35691",
        "group": "last-30-days",
        "lat": 31.509278194688648,
        "lon": -43.716288706312895,
        "alt_km": 413.87255382848707,
        "timestamp": "2025-12-07T11:27:48.739141+00:00",
        "meta_object_name": "STARLINK-35691",
        "meta_object_id": "2025-257AA",
        "meta_epoch": "2025-12-06T07:25:27.788160",
        "meta_mean_motion": 15.49375939,
        "meta_eccentricity": 4.55e-05,
        "meta_inclination": 53.1594,
        "meta_ra_of_asc_node": 294.5115,
        "meta_arg_of_pericenter": 127.6305,
        "meta_mean_anomaly": 232.4745,
        "meta_ephemeris_type": 0,
        "meta_classification_type": "U",
        "meta_norad_cat_id": 66404,
        "meta_element_set_no": 999,
        "meta_rev_at_epoch": 538,
        "meta_bstar": 0.0020746218,
        "meta_mean_motion_dot": 0.00116952,
        "meta_mean_motion_ddot": 0,
        "tle_line1": "1 66404U 25257AA  25340.30934940  .00116952  00000+0  20746-2 0  9991",
        "tle_line2": "2 66404  53.1594 294.5115 0000455 127.6305 232.4745 15.49375939  5382"
      },
      "geometry": {
        "type": "Point",
        "coordinates": [
          -43.716288706312895,
          31.509278194688648
        ]
      }
    },
    {
      "type": "Feature",
      "properties": {
        "norad_id": 66405,
        "name": "STARLINK-35683",
        "group": "last-30-days",
        "lat": 32.59092034256095,
        "lon": -42.441741863159244,
        "alt_km": 413.5227805491568,
        "timestamp": "2025-12-07T11:27:48.739155+00:00",
        "meta_object_name": "STARLINK-35683",
        "meta_object_id": "2025-257AB",
        "meta_epoch": "2025-12-06T07:24:59.394528",
        "meta_mean_motion": 15.49312837,
        "meta_eccentricity": 7.29e-05,
        "meta_inclination": 53.1588,
        "meta_ra_of_asc_node": 294.5078,
        "meta_arg_of_pericenter": 8.5293,
        "meta_mean_anomaly": 351.5728,
        "meta_ephemeris_type": 0,
        "meta_classification_type": "U",
        "meta_norad_cat_id": 66405,
        "meta_element_set_no": 999,
        "meta_rev_at_epoch": 531,
        "meta_bstar": 0.0019142527,
        "meta_mean_motion_dot": 0.00107505,
        "meta_mean_motion_ddot": 0,
        "tle_line1": "1 66405U 25257AB  25340.30902077  .00107505  00000+0  19143-2 0  9991",
        "tle_line2": "2 66405  53.1588 294.5078 0000729   8.5293 351.5728 15.49312837  5316"
      },
      "geometry": {
        "type": "Point",
        "coordinates": [
          -42.441741863159244,
          32.59092034256095
        ]
      }
    },
    {
      "type": "Feature",
      "properties": {
        "norad_id": 66406,
        "name": "STARLINK-34840",
        "group": "last-30-days",
        "lat": 36.38212174935119,
        "lon": -37.55965580128663,
        "alt_km": 412.84390641153186,
        "timestamp": "2025-12-07T11:27:48.739166+00:00",
        "meta_object_name": "STARLINK-34840",
        "meta_object_id": "2025-257AC",
        "meta_epoch": "2025-12-06T22:52:24.205152",
        "meta_mean_motion": 15.49353848,
        "meta_eccentricity": 9.674e-05,
        "meta_inclination": 53.1584,
        "meta_ra_of_asc_node": 291.4172,
        "meta_arg_of_pericenter": 55.3698,
        "meta_mean_anomaly": 304.7402,
        "meta_ephemeris_type": 0,
        "meta_classification_type": "U",
        "meta_norad_cat_id": 66406,
        "meta_element_set_no": 999,
        "meta_rev_at_epoch": 542,
        "meta_bstar": 0.0027073069,
        "meta_mean_motion_dot": 0.00153354,
        "meta_mean_motion_ddot": 0,
        "tle_line1": "1 66406U 25257AC  25340.95305793  .00153354  00000+0  27073-2 0  9999",
        "tle_line2": "2 66406  53.1584 291.4172 0000967  55.3698 304.7402 15.49353848  5425"
      },
      "geometry": {
        "type": "Point",
        "coordinates": [
          -37.55965580128663,
          36.38212174935119
        ]
      }
    },
    {
      "type": "Feature",
      "properties": {
        "norad_id": 66407,
        "name": "STARLINK-35686",
        "group": "last-30-days",
        "lat": 33.939374512116395,
        "lon": -40.78261334654953,
        "alt_km": 413.2266184040882,
        "timestamp": "2025-12-07T11:27:48.739179+00:00",
        "meta_object_name": "STARLINK-35686",
        "meta_object_id": "2025-257AD",
        "meta_epoch": "2025-12-06T21:20:30.158880",
        "meta_mean_motion": 15.49435773,
        "meta_eccentricity": 0.00013332,
        "meta_inclination": 53.1593,
        "meta_ra_of_asc_node": 291.731,
        "meta_arg_of_pericenter": 114.7753,
        "meta_mean_anomaly": 245.3395,
        "meta_ephemeris_type": 0,
        "meta_classification_type": "U",
        "meta_norad_cat_id": 66407,
        "meta_element_set_no": 999,
        "meta_rev_at_epoch": 547,
        "meta_bstar": 0.0031738662,
        "meta_mean_motion_dot": 0.00181025,
        "meta_mean_motion_ddot": 0,
        "tle_line1": "1 66407U 25257AD  25340.88923795  .00181025  00000+0  31739-2 0  9990",
        "tle_line2": "2 66407  53.1593 291.7310 0001333 114.7753 245.3395 15.49435773  5477"
      },
      "geometry": {
        "type": "Point",
        "coordinates": [
          -40.78261334654953,
          33.939374512116395
        ]
      }
    },
    {
      "type": "Feature",
      "properties": {
        "norad_id": 66408,
        "name": "STARLINK-35679",
        "group": "last-30-days",
        "lat": 35.49980466697273,
        "lon": -38.760101698668095,
        "alt_km": 412.7448351953135,
        "timestamp": "2025-12-07T11:27:48.739190+00:00",
        "meta_object_name": "STARLINK-35679",
        "meta_object_id": "2025-257AE",
        "meta_epoch": "2025-12-06T04:18:12.054816",
        "meta_mean_motion": 15.49356651,
        "meta_eccentricity": 0.00016029,
        "meta_inclination": 53.1593,
        "meta_ra_of_asc_node": 295.1224,
        "meta_arg_of_pericenter": 102.3098,
        "meta_mean_anomaly": 257.8091,
        "meta_ephemeris_type": 0,
        "meta_classification_type": "U",
        "meta_norad_cat_id": 66408,
        "meta_element_set_no": 999,
        "meta_rev_at_epoch": 536,
        "meta_bstar": 0.0018816254,
        "meta_mean_motion_dot": 0.00105806,
        "meta_mean_motion_ddot": 0,
        "tle_line1": "1 66408U 25257AE  25340.17930619  .00105806  00000+0  18816-2 0  9990",
        "tle_line2": "2 66408  53.1593 295.1224 0001602 102.3098 257.8091 15.49356651  5360"
      },
      "geometry": {
        "type": "Point",
        "coordinates": [
          -38.760101698668095,
          35.49980466697273
        ]
      }
    },
    {
      "type": "Feature",
      "properties": {
        "norad_id": 66409,
        "name": "CHUTIAN-2 A",
        "group": "last-30-days",
        "lat": -17.272446519255848,
        "lon": 48.92599095804166,
        "alt_km": 738.9489037953881,
        "timestamp": "2025-12-07T11:27:48.739200+00:00",
        "meta_object_name": "CHUTIAN-2 A",
        "meta_object_id": "2025-256A",
        "meta_epoch": "2025-12-06T22:17:39.267744",
        "meta_mean_motion": 14.49926375,
        "meta_eccentricity": 0.0013415,
        "meta_inclination": 98.2768,
        "meta_ra_of_asc_node": 45.7929,
        "meta_arg_of_pericenter": 195.5431,
        "meta_mean_anomaly": 164.5353,
        "meta_ephemeris_type": 0,
        "meta_classification_type": "U",
        "meta_norad_cat_id": 66409,
        "meta_element_set_no": 999,
        "meta_rev_at_epoch": 403,
        "meta_bstar": 0.00051427783,
        "meta_mean_motion_dot": 1.947e-05,
        "meta_mean_motion_ddot": 0,
        "tle_line1": "1 66409U 25256A   25340.92892671  .00001947  00000+0  51428-3 0  9996",
        "tle_line2": "2 66409  98.2768  45.7929 0013415 195.5431 164.5353 14.49926375  4039"
      },
      "geometry": {
        "type": "Point",
        "coordinates": [
          48.92599095804166,
          -17.272446519255848
        ]
      }
    },
    {
      "type": "Feature",
      "properties": {
        "norad_id": 66410,
        "name": "CHUTIAN-2 B",
        "group": "last-30-days",
        "lat": 57.96159890524921,
        "lon": 32.91713473838274,
        "alt_km": 723.88921363999,
        "timestamp": "2025-12-07T11:27:48.739210+00:00",
        "meta_object_name": "CHUTIAN-2 B",
        "meta_object_id": "2025-256B",
        "meta_epoch": "2025-12-06T21:57:08.191296",
        "meta_mean_motion": 14.51014303,
        "meta_eccentricity": 0.0013474,
        "meta_inclination": 98.2802,
        "meta_ra_of_asc_node": 45.8194,
        "meta_arg_of_pericenter": 199.1445,
        "meta_mean_anomaly": 160.9245,
        "meta_ephemeris_type": 0,
        "meta_classification_type": "U",
        "meta_norad_cat_id": 66410,
        "meta_element_set_no": 999,
        "meta_rev_at_epoch": 403,
        "meta_bstar": 0.00032345271,
        "meta_mean_motion_dot": 1.237e-05,
        "meta_mean_motion_ddot": 0,
        "tle_line1": "1 66410U 25256B   25340.91467814  .00001237  00000+0  32345-3 0  9993",
        "tle_line2": "2 66410  98.2802  45.8194 0013474 199.1445 160.9245 14.51014303  4037"
      },
      "geometry": {
        "type": "Point",
        "coordinates": [
          32.91713473838274,
          57.96159890524921
        ]
      }
    }
  ]
}